NORAD_CAT_ID,OBJECT_NAME,OBJECT_TYPE,EPOCH,MEAN_MOTION,ECCENTRICITY,INCLINATION,RA_OF_ASC_NODE,ARG_OF_PERICENTER,MEAN_ANOMALY,BSTAR,MEAN_MOTION_DOT,MEAN_MOTION_DDOT,TLE_LINE0,TLE_LINE1,TLE_LINE2,SEMIMAJOR_AXIS,PERIOD,APOGEE,PERIGEE,DECAYED
52459.0,STARLINK-3856,PAYLOAD,2024-05-18 09:28:48,15.08844902,0.0001093,53.217,143.2998,90.4358,269.6759,0.00015063,2.111e-05,0.0,0 STARLINK-3856,1 52459U 22049J   24139.39500921  .00002111  00000-0  15063-3 0  9993,2 52459  53.2170 143.2998 0001093  90.4358 269.6759 15.08844902112563,6917.865,95.437,540.487,538.974,0.0
52459.0,STARLINK-3856,PAYLOAD,2024-05-18 17:25:44,15.08842593,0.0001118,53.216,141.8139,91.4862,268.6258,0.00012652,1.726e-05,0.0,0 STARLINK-3856,1 52459U 22049J   24139.72621161  .00001726  00000-0  12652-3 0  9992,2 52459  53.2160 141.8139 0001118  91.4862 268.6258 15.08842593112615,6917.872,95.437,540.511,538.964,0.0
52459.0,STARLINK-3856,PAYLOAD,2024-05-19 04:33:26,15.08837968,0.0001143,53.2157,139.7322,92.2714,267.8409,8.7046e-05,1.098e-05,0.0,0 STARLINK-3856,1 52459U 22049J   24140.18989474  .00001098  00000-0  87046-4 0  9990,2 52459  53.2157 139.7322 0001143  92.2714 267.8409 15.08837968112848,6917.887,95.438,540.542,538.961,0.0
52459.0,STARLINK-3856,PAYLOAD,2024-05-19 07:44:13,15.08840515,0.0001126,53.2155,139.1375,92.2385,267.8736,9.1812e-05,1.174e-05,0.0,0 STARLINK-3856,1 52459U 22049J   24140.32237351  .00001174  00000-0  91812-4 0  9997,2 52459  53.2155 139.1375 0001126  92.2385 267.8736 15.08840515112703,6917.879,95.438,540.523,538.965,0.0
52459.0,STARLINK-3856,PAYLOAD,2024-05-20 09:10:22,15.08845858,0.000115,53.2163,134.3784,96.894,263.2183,5.6021e-05,6.04e-06,0.0,0 STARLINK-3856,1 52459U 22049J   24141.38220958  .00000604  00000-0  56021-4 0  9999,2 52459  53.2163 134.3784 0001150  96.8940 263.2183 15.08845858113024,6917.862,95.437,540.523,538.932,0.0
52459.0,STARLINK-3856,PAYLOAD,2024-05-21 04:15:01,15.08835225,0.0001205,53.216,130.8094,97.1897,262.9232,1.1944e-05,-9.8e-07,0.0,0 STARLINK-3856,1 52459U 22049J   24142.17709790 -.00000098  00000-0  11944-4 0  9996,2 52459  53.2160 130.8094 0001205  97.1897 262.9232 15.08835225113143,6917.895,95.438,540.594,538.926,0.0
52459.0,STARLINK-3856,PAYLOAD,2024-05-21 09:01:10,15.08835694,0.0001227,53.2161,129.9175,96.8811,263.2321,1.9171e-05,1.7e-07,0.0,0 STARLINK-3856,1 52459U 22049J   24142.37581764  .00000017  00000-0  19171-4 0  9997,2 52459  53.2161 129.9175 0001227  96.8811 263.2321 15.08835694113018,6917.894,95.438,540.607,538.91,0.0
52459.0,STARLINK-3856,PAYLOAD,2024-05-22 04:05:47,15.08842798,0.0001279,53.2169,126.3485,102.5128,257.6007,6.1314e-05,6.88e-06,0.0,0 STARLINK-3856,1 52459U 22049J   24143.17069159  .00000688  00000-0  61314-4 0  9995,2 52459  53.2169 126.3485 0001279 102.5128 257.6007 15.08842798113295,6917.872,95.437,540.622,538.852,0.0
52459.0,STARLINK-3856,PAYLOAD,2024-05-22 08:51:56,15.08844776,0.000138,53.2173,125.4564,111.4715,248.6424,7.8356e-05,9.59e-06,0.0,0 STARLINK-3856,1 52459U 22049J   24143.36940900  .00000959  00000-0  78356-4 0  9993,2 52459  53.2173 125.4564 0001380 111.4715 248.6424 15.08844776113169,6917.866,95.437,540.685,538.776,0.0
52459.0,STARLINK-3856,PAYLOAD,2024-05-23 05:31:58,15.08833811,0.0001314,53.2172,121.5902,95.8766,264.2376,3.8595e-05,3.26e-06,0.0,0 STARLINK-3856,1 52459U 22049J   24144.23053995  .00000326  00000-0  38595-4 0  9998,2 52459  53.2172 121.5902 0001314  95.8766 264.2376 15.08833811113459,6917.899,95.438,540.673,538.855,0.0
52459.0,STARLINK-3856,PAYLOAD,2024-05-24 08:33:31,15.08839371,0.0001413,53.2174,116.5325,92.7922,267.3232,4.1191e-05,3.68e-06,0.0,0 STARLINK-3856,1 52459U 22049J   24145.35661799  .00000368  00000-0  41191-4 0  9991,2 52459  53.2174 116.5325 0001413  92.7922 267.3232 15.08839371113625,6917.882,95.438,540.725,538.77,0.0
52459.0,STARLINK-3856,PAYLOAD,2024-05-25 05:13:33,15.08833291,0.0001427,53.2172,112.664,78.6249,281.4904,2.9497e-05,1.81e-06,0.0,0 STARLINK-3856,1 52459U 22049J   24146.21774591  .00000181  00000-0  29497-4 0  9990,2 52459  53.2172 112.6640 0001427  78.6249 281.4904 15.08833291113752,6917.901,95.438,540.753,538.779,0.0
52459.0,STARLINK-3856,PAYLOAD,2024-05-25 08:24:19,15.08831815,0.000144,53.2174,112.0711,79.1615,280.954,1.6812e-05,-2e-07,0.0,0 STARLINK-3856,1 52459U 22049J   24146.35022797 -.00000020  00000-0  16812-4 0  9999,2 52459  53.2174 112.0711 0001440  79.1615 280.9540 15.08831815113610,6917.905,95.438,540.767,538.774,0.0
52459.0,STARLINK-3856,PAYLOAD,2024-05-26 06:39:43,15.08838145,0.0001528,53.2181,107.9086,82.5457,277.5709,5.0319e-05,5.13e-06,0.0,0 STARLINK-3856,1 52459U 22049J   24147.27758575  .00000513  00000-0  50319-4 0  9997,2 52459  53.2181 107.9086 0001528  82.5457 277.5709 15.08838145113910,6917.886,95.438,540.808,538.694,0.0
52459.0,STARLINK-3856,PAYLOAD,2024-05-26 20:58:12,15.08832481,0.0001492,53.2182,105.2352,93.6737,266.4425,6.2083e-05,7e-06,0.0,0 STARLINK-3856,1 52459U 22049J   24147.87375007  .00000700  00000-0  62083-4 0  9997,2 52459  53.2182 105.2352 0001492  93.6737 266.4425 15.08832481113843,6917.903,95.438,540.801,538.736,0.0
52459.0,STARLINK-3856,PAYLOAD,2024-05-27 14:27:25,15.08842515,0.0001461,53.2181,101.965,101.3082,258.8074,8.2962e-05,1.033e-05,0.0,0 STARLINK-3856,1 52459U 22049J   24148.60238212  .00001033  00000-0  82962-4 0  9993,2 52459  53.2181 101.9650 0001461 101.3082 258.8074 15.08842515113958,6917.873,95.437,540.748,538.727,0.0
52459.0,STARLINK-3856,PAYLOAD,2024-05-27 20:48:58,15.08837272,0.0001515,53.2177,100.7756,103.2461,256.87,4.0168e-05,3.51e-06,0.0,0 STARLINK-3856,1 52459U 22049J   24148.86734751  .00000351  00000-0  40168-4 0  9994,2 52459  53.2177 100.7756 0001515 103.2461 256.8700 15.08837272114150,6917.889,95.438,540.802,538.706,0.0
52459.0,STARLINK-3856,PAYLOAD,2024-05-28 03:10:31,15.08839674,0.0001495,53.2178,99.5866,100.8782,259.2378,2.4317e-05,9.9e-07,0.0,0 STARLINK-3856,1 52459U 22049J   24149.13230670  .00000099  00000-0  24317-4 0  9993,2 52459  53.2178  99.5866 0001495 100.8782 259.2378 15.08839674114037,6917.881,95.438,540.781,538.712,0.0
52459.0,STARLINK-3856,PAYLOAD,2024-05-28 20:39:45,15.08842423,0.0001668,53.2185,96.3153,112.7684,247.3485,1.3461e-05,-7.4e-07,0.0,0 STARLINK-3856,1 52459U 22049J   24149.86094423 -.00000074  00000-0  13461-4 0  9999,2 52459  53.2185  96.3153 0001668 112.7684 247.3485 15.08842423114149,6917.873,95.437,540.892,538.584,0.0
52459.0,STARLINK-3856,PAYLOAD,2024-05-29 03:01:17,15.08847225,0.0001491,53.2183,95.1265,106.5633,253.5523,2.7406e-05,1.48e-06,0.0,0 STARLINK-3856,1 52459U 22049J   24150.12590010  .00000148  00000-0  27406-4 0  9998,2 52459  53.2183  95.1265 0001491 106.5633 253.5523 15.08847225114346,6917.858,95.437,540.755,538.692,0.0
52459.0,STARLINK-3856,PAYLOAD,2024-05-29 06:12:03,15.08846781,0.0001548,53.2181,94.5315,110.5165,249.5993,4.5026e-05,4.29e-06,0.0,0 STARLINK-3856,1 52459U 22049J   24150.25837887  .00000429  00000-0  45026-4 0  9998,2 52459  53.2181  94.5315 0001548 110.5165 249.5993 15.08846781114208,6917.86,95.437,540.796,538.654,0.0
52459.0,STARLINK-3856,PAYLOAD,2024-05-29 20:30:33,15.08836756,0.0001222,53.2171,91.8546,96.3044,263.8087,-4.9918e-05,-1.082e-05,0.0,0 STARLINK-3856,1 52459U 22049J   24150.85454995 -.00001082  00000-0 -49918-4 0  9991,2 52459  53.2171  91.8546 0001222  96.3044 263.8087 15.08836756114450,6917.89,95.438,540.601,538.91,0.0
52459.0,STARLINK-3856,PAYLOAD,2024-05-30 06:02:51,15.08839121,0.0001273,53.2176,90.0703,92.3812,267.7326,-2.5158e-05,-6.88e-06,0.0,0 STARLINK-3856,1 52459U 22049J   24151.25198821 -.00000688  00000-0 -25158-4 0  9990,2 52459  53.2176  90.0703 0001273  92.3812 267.7326 15.08839121114353,6917.883,95.438,540.629,538.867,0.0
52459.0,STARLINK-3856,PAYLOAD,2024-05-31 02:42:51,15.0884735,0.0001471,53.2183,86.2049,104.069,256.0466,3.3063e-05,2.38e-06,0.0,0 STARLINK-3856,1 52459U 22049J   24152.11310000  .00000238  00000-0  33063-4 0  9994,2 52459  53.2183  86.2049 0001471 104.0690 256.0466 15.08847350114647,6917.858,95.437,540.741,538.705,0.0
52459.0,STARLINK-3856,PAYLOAD,2024-05-31 05:53:38,15.08844539,0.0001462,53.2187,85.6083,102.1928,257.9228,9.3368e-05,1.198e-05,0.0,0 STARLINK-3856,1 52459U 22049J   24152.24557915  .00001198  00000-0  93368-4 0  9996,2 52459  53.2187  85.6083 0001462 102.1928 257.9228 15.08844539114502,6917.867,95.437,540.743,538.72,0.0
52459.0,STARLINK-3856,PAYLOAD,2024-06-01 04:09:02,15.08835824,0.0001482,53.2194,81.451,85.4547,274.6615,4.1386e-05,3.71e-06,0.0,0 STARLINK-3856,1 52459U 22049J   24153.17294879  .00000371  00000-0  41386-4 0  9991,2 52459  53.2194  81.4510 0001482  85.4547 274.6615 15.08835824114807,6917.893,95.438,540.783,538.733,0.0
52459.0,STARLINK-3856,PAYLOAD,2024-06-01 12:05:58,15.0883181,0.0001577,53.2182,79.9611,85.684,274.4333,-3.2928e-05,-8.12e-06,0.0,0 STARLINK-3856,1 52459U 22049J   24153.50415460 -.00000812  00000-0 -32928-4 0  9993,2 52459  53.2182  79.9611 0001577  85.6840 274.4333 15.08831810114694,6917.905,95.438,540.861,538.679,0.0
52459.0,STARLINK-3856,PAYLOAD,2024-06-02 03:59:49,15.08843918,0.0001476,53.2189,76.9874,86.2335,273.8826,-4.9096e-05,-1.069e-05,0.0,0 STARLINK-3856,1 52459U 22049J   24154.16654924 -.00001069  00000-0 -49096-4 0  9995,2 52459  53.2189  76.9874 0001476  86.2335 273.8826 15.08843918114954,6917.868,95.437,540.754,538.712,0.0
52459.0,STARLINK-3856,PAYLOAD,2024-06-02 11:56:45,15.08843682,0.0001492,53.219,75.5007,85.107,275.0093,-4.7427e-05,-1.043e-05,0.0,0 STARLINK-3856,1 52459U 22049J   24154.49774900 -.00001043  00000-0 -47427-4 0  9996,2 52459  53.2190  75.5007 0001492  85.1070 275.0093 15.08843682114847,6917.869,95.437,540.766,538.702,0.0
52459.0,STARLINK-3856,PAYLOAD,2024-06-03 11:47:35,15.08808981,0.0001408,53.2179,71.0399,85.2274,274.8878,-0.00020319,-3.517e-05,0.0,0 STARLINK-3856,1 52459U 22049J   24155.49137976 -.00003517  00000-0 -20319-3 0  9991,2 52459  53.2179  71.0399 0001408  85.2274 274.8878 15.08808981115159,6917.975,95.44,540.814,538.866,0.0
